OBJECT_NAME,OBJECT_ID,EPOCH,MEAN_MOTION,ECCENTRICITY,INCLINATION,RA_OF_ASC_NODE,ARG_OF_PERICENTER,MEAN_ANOMALY,EPHEMERIS_TYPE,CLASSIFICATION_TYPE,NORAD_CAT_ID,ELEMENT_SET_NO,REV_AT_EPOCH,BSTAR,MEAN_MOTION_DOT,MEAN_MOTION_DDOT
COSMOS 2534 (758),2019-030A,2026-07-16T15:35:19.703040,2.13102191,.0013502,64.3705,191.6243,275.0108,146.6615,0,U,44299,999,5555,0,.52E-6,0
BEIDOU-3 IGSO-2 (C39),2019-035A,2026-07-20T06:50:53.025216,1.00256016,.00392668,55.2517,158.5718,216.3906,144.0267,0,U,44337,999,2600,0,-.108E-5,0
GPS BIII-2  (PRN 18),2019-056A,2026-07-20T01:14:09.697632,2.00570344,.00636427,55.6194,329.8361,198.2367,159.5362,0,U,44506,999,5072,0,-.108E-5,0
BEIDOU-3 M24 (C46),2019-061A,2026-07-19T23:55:07.811616,1.86229210,.00087009,54.3974,181.6213,359.9963,359.9812,0,U,44542,999,4640,0,.73E-6,0
BEIDOU-3 M23 (C45),2019-061B,2026-07-20T05:52:15.922272,1.86227453,.00060136,54.3961,181.5811,341.7340,95.9084,0,U,44543,999,4641,0,.75E-6,0
EUTELSAT 5 WEST B (EGNOS/PRN 121),2019-067A,2026-07-20T06:15:41.399712,1.00271532,.00031696,0.0761,322.7058,155.6721,268.5685,0,U,44624,999,2476,0,-.44E-6,0
BEIDOU-3 M22 (C44),2019-078A,2026-07-19T20:05:15.909216,1.86227177,.00055698,53.9040,298.6783,50.4433,309.6441,0,U,44793,999,4525,0,-.96E-6,0
BEIDOU-3 M21 (C43),2019-078B,2026-07-19T23:26:38.266656,1.86227606,.00035251,53.8770,298.6333,49.7600,310.3090,0,U,44794,999,4526,0,-.96E-6,0
COSMOS 2544 (759),2019-088A,2026-07-18T22:32:17.742336,2.13102904,.00120499,65.5828,72.6716,253.1294,106.8089,0,U,44850,999,5139,0,-.38E-6,0
BEIDOU-3 M19 (C41),2019-090A,2026-07-19T07:19:46.002720,1.86231477,.00166077,56.5872,61.7289,297.5472,169.9419,0,U,44864,999,4483,0,-.73E-6,0
BEIDOU-3 M20 (C42),2019-090B,2026-07-19T06:36:38.646720,1.86231465,.00142256,56.5887,61.7642,312.2916,224.7019,0,U,44865,999,4481,0,-.72E-6,0
BEIDOU-3 G2 (C60),2020-017A,2026-07-20T01:32:00.488256,1.00272466,.00018781,2.9298,47.8126,57.6212,295.4314,0,U,45344,999,2358,0,-.144E-5,0
COSMOS 2545 (760),2020-018A,2026-07-19T14:28:44.173056,2.13102333,.0009726,64.3337,311.2795,229.7423,130.1960,0,U,45358,999,4935,0,-.8E-6,0
BEIDOU-3 G3 (C61),2020-040A,2026-07-20T06:48:38.240352,1.00274321,.00024521,2.5269,67.4984,312.2630,130.9872,0,U,45807,999,2240,0,-.357E-5,0
GPS BIII-3  (PRN 23),2020-041A,2026-07-19T21:11:43.698624,2.00557951,.00654428,56.6917,27.6753,204.6789,328.4725,0,U,45854,999,4469,0,-.88E-6,0
GALAXY 30 (WAAS/PRN 135),2020-056C,2026-07-20T05:41:29.677920,1.00263090,.00020844,0.0191,58.0870,68.1467,132.1475,0,U,46114,999,2162,0,.36E-6,0
COSMOS 2547 (705K),2020-075A,2026-07-19T07:46:14.424384,2.13099922,.00094584,64.6016,191.4031,239.8333,120.0724,0,U,46805,999,4459,0,.74E-6,0
GPS BIII-4  (PRN 14),2020-078A,2026-07-20T04:23:59.311968,2.00565060,.0074664,53.9767,209.4399,207.9348,159.4584,0,U,46826,999,4217,0,.63E-6,0
GPS BIII-5  (PRN 11),2021-054A,2026-07-20T01:40:16.161600,2.00567036,.00265525,55.1569,331.1375,228.5753,243.0816,0,U,48859,999,3741,0,-.109E-5,0
QZS-1R (QZSS/PRN 196),2021-096A,2026-07-19T13:27:51.734016,1.00244085,.07555125,37.5263,79.1015,272.3091,279.1178,0,U,49336,999,1733,0,-.322E-5,0
GSAT0223 (GALILEO 27),2021-116A,2026-07-19T06:07:31.715616,1.70476276,.00024727,57.1491,340.8090,195.0524,165.6739,0,U,49809,999,2873,0,-.106E-5,0
GSAT0224 (GALILEO 28),2021-116B,2026-07-19T22:53:39.367968,1.70476408,.00019036,57.1487,340.7887,182.1498,0.0180,0,U,49810,999,2876,0,-.107E-5,0
COSMOS 2557 (706K),2022-075A,2026-07-19T11:42:34.358688,2.13102100,.00109026,64.2776,313.3470,270.7384,89.1574,0,U,52984,999,3140,0,-.8E-6,0
COSMOS 2559 (707K),2022-130A,2026-07-20T05:54:24.876000,2.13101764,.00131602,64.2496,313.4029,181.5766,178.4400,0,U,54031,999,2939,0,-.85E-6,0
COSMOS 2564 (761),2022-161A,2026-07-19T03:36:59.798304,2.13102039,.00121934,64.7441,191.6506,224.8358,135.0652,0,U,54377,999,2831,0,.72E-6,0
GPS BIII-6  (PRN 28),2023-009A,2026-07-19T14:29:48.751008,2.00569391,.00055446,55.1255,147.2446,333.0065,201.1705,0,U,55268,999,2589,0,.34E-6,0
BEIDOU-3 G4 (C62),2023-066A,2026-07-20T05:14:27.442752,1.00271267,.00050437,0.4565,340.3937,183.8091,352.4734,0,U,56564,999,1172,0,-.283E-5,0
NVS-01 (IRNSS-1J),2023-076A,2026-07-20T06:54:00.226368,1.00276512,.00029855,2.0897,242.8328,19.0512,269.1503,0,U,56759,999,1144,0,-.337E-5,0
COSMOS 2569 (703K),2023-114A,2026-07-19T03:54:42.469920,2.13103813,.00095297,65.3205,71.5424,295.6205,64.3510,0,U,57517,999,2294,0,-.42E-6,0
BEIDOU-3 M28 (C50),2023-207A,2026-07-20T01:17:23.722656,1.86229765,.00022586,55.7822,61.1944,8.4424,351.6234,0,U,58654,999,1745,0,-.79E-6,0
BEIDOU-3 M26 (C48),2023-207B,2026-07-19T20:25:47.359776,1.86229762,.00017673,55.7844,61.1877,324.4121,35.6385,0,U,58655,999,1743,0,-.78E-6,0
